ONEWEB-0216             
1 48801U 21045AL  26070.30431162 -.00000010  00000+0 -61689-4 0  9994
2 48801  87.8937 278.7362 0001475  90.3222 269.8077 13.15552047231430
ONEWEB-0239             
1 48802U 21045AM  26070.08090046  .00000007  00000+0 -16441-4 0  9993
2 48802  87.8932 278.7950 0002326 104.2791 255.8598 13.15547601231445
ONEWEB-0249             
1 48967U 21060A   26070.01682247  .00000145  00000+0  34446-3 0  9991
2 48967  87.9005 248.3027 0001744  94.5997 265.5333 13.16594332226699
ONEWEB-0250             
1 48968U 21060B   26070.19921652  .00000056  00000+0  98603-4 0  9994
2 48968  87.9006 246.3414 0002589  83.2816 276.8615 13.25827658227231
ONEWEB-0252             
1 48970U 21060D   26070.19968597  .00000011  00000+0 -46905-5 0  9997
2 48970  87.9005 248.2593 0001476 102.2478 257.8819 13.16593964226764
ONEWEB-0253             
1 48971U 21060E   26070.18861395  .00000079  00000+0  17332-3 0  9998
2 48971  87.9004 248.2671 0001688  96.6161 263.5162 13.16595330226697
ONEWEB-0254             
1 48972U 21060F   26070.19810347  .00000028  00000+0  38969-4 0  9995
2 48972  87.9009 248.2598 0001959 100.1037 260.0315 13.16593520226696
ONEWEB-0255             
1 48973U 21060G   26070.23610393  .00000137  00000+0  32518-3 0  9994
2 48973  87.9005 248.2615 0001813 100.0188 260.1148 13.16594265226779
ONEWEB-0256             
1 48974U 21060H   26070.03423927  .00000061  00000+0  12536-3 0  9992
2 48974  87.9008 248.3089 0001482  95.5318 264.5982 13.16593609226713
ONEWEB-0257             
1 48975U 21060J   26070.21868353  .00000023  00000+0  26717-4 0  9994
2 48975  87.9004 248.2559 0001676 101.7267 258.4052 13.16594102226695
ONEWEB-0258             
1 48976U 21060K   26070.22029165  .00000048  00000+0  92708-4 0  9996
2 48976  87.9005 248.2672 0001709  95.5227 264.6099 13.16596825226702
ONEWEB-0259             
1 48977U 21060L   26069.90994307  .00000009  00000+0 -97153-5 0  9997
2 48977  87.9006 248.3279 0001801  98.4944 261.6391 13.16593845226698
ONEWEB-0260             
1 48978U 21060M   26070.05322422 -.00000061  00000+0 -19325-3 0  9991
2 48978  87.9005 248.3052 0001249 102.3063 257.8208 13.16594658226697
ONEWEB-0261             
1 48979U 21060N   26070.02311629  .00000007  00000+0 -15144-4 0  9991
2 48979  87.8996 248.3111 0001825 108.9039 251.2290 13.16591424226740
ONEWEB-0262             
1 48980U 21060P   26070.00336126  .00000065  00000+0  13673-3 0  9997
2 48980  87.9006 248.2972 0001924  95.0037 265.1314 13.16593556226708
ONEWEB-0263             
1 48981U 21060Q   26070.18701465  .00000080  00000+0  17447-3 0  9999
2 48981  87.9008 248.2721 0001903 105.5284 254.6057 13.16594081226690
ONEWEB-0264             
1 48982U 21060R   26070.30021459 -.00000010  00000+0 -60811-4 0  9991
2 48982  87.9005 248.2536 0001573 104.4120 255.7186 13.16592249226714
