[{"OBJECT_NAME":"ONEWEB-0216","OBJECT_ID":"2021-045AL","EPOCH":"2026-03-11T07:18:12.523968","MEAN_MOTION":13.15552047,"ECCENTRICITY":0.00014751,"INCLINATION":87.8937,"RA_OF_ASC_NODE":278.7362,"ARG_OF_PERICENTER":90.3222,"MEAN_ANOMALY":269.8077,"EPHEMERIS_TYPE":0,"CLASSIFICATION_TYPE":"U","NORAD_CAT_ID":48801,"ELEMENT_SET_NO":999,"REV_AT_EPOCH":23143,"BSTAR":-6.1688789e-5,"MEAN_MOTION_DOT":-1.0e-7,"MEAN_MOTION_DDOT":0},{"OBJECT_NAME":"ONEWEB-0239","OBJECT_ID":"2021-045AM","EPOCH":"2026-03-11T01:56:29.799744","MEAN_MOTION":13.15547601,"ECCENTRICITY":0.00023262,"INCLINATION":87.8932,"RA_OF_ASC_NODE":278.795,"ARG_OF_PERICENTER":104.2791,"MEAN_ANOMALY":255.8598,"EPHEMERIS_TYPE":0,"CLASSIFICATION_TYPE":"U","NORAD_CAT_ID":48802,"ELEMENT_SET_NO":999,"REV_AT_EPOCH":23144,"BSTAR":-1.6440614e-5,"MEAN_MOTION_DOT":7.0e-8,"MEAN_MOTION_DDOT":0},{"OBJECT_NAME":"ONEWEB-0249","OBJECT_ID":"2021-060A","EPOCH":"2026-03-11T00:24:13.461408","MEAN_MOTION":13.16594332,"ECCENTRICITY":0.0001744,"INCLINATION":87.9005,"RA_OF_ASC_NODE":248.3027,"ARG_OF_PERICENTER":94.5997,"MEAN_ANOMALY":265.5333,"EPHEMERIS_TYPE":0,"CLASSIFICATION_TYPE":"U","NORAD_CAT_ID":48967,"ELEMENT_SET_NO":999,"REV_AT_EPOCH":22669,"BSTAR":0.00034446156,"MEAN_MOTION_DOT":1.45e-6,"MEAN_MOTION_DDOT":0},{"OBJECT_NAME":"ONEWEB-0250","OBJECT_ID":"2021-060B","EPOCH":"2026-03-11T04:46:52.307328","MEAN_MOTION":13.25827658,"ECCENTRICITY":0.00025897,"INCLINATION":87.9006,"RA_OF_ASC_NODE":246.3414,"ARG_OF_PERICENTER":83.2816,"MEAN_ANOMALY":276.8615,"EPHEMERIS_TYPE":0,"CLASSIFICATION_TYPE":"U","NORAD_CAT_ID":48968,"ELEMENT_SET_NO":999,"REV_AT_EPOCH":22723,"BSTAR":9.8602892e-5,"MEAN_MOTION_DOT":5.6e-7,"MEAN_MOTION_DDOT":0},{"OBJECT_NAME":"ONEWEB-0252","OBJECT_ID":"2021-060D","EPOCH":"2026-03-11T04:47:32.867808","MEAN_MOTION":13.16593964,"ECCENTRICITY":0.0001476,"INCLINATION":87.9005,"RA_OF_ASC_NODE":248.2593,"ARG_OF_PERICENTER":102.2478,"MEAN_ANOMALY":257.8819,"EPHEMERIS_TYPE":0,"CLASSIFICATION_TYPE":"U","NORAD_CAT_ID":48970,"ELEMENT_SET_NO":999,"REV_AT_EPOCH":22676,"BSTAR":-4.6905e-6,"MEAN_MOTION_DOT":1.1e-7,"MEAN_MOTION_DDOT":0},{"OBJECT_NAME":"ONEWEB-0253","OBJECT_ID":"2021-060E","EPOCH":"2026-03-11T04:31:36.245280","MEAN_MOTION":13.1659533,"ECCENTRICITY":0.00016882,"INCLINATION":87.9004,"RA_OF_ASC_NODE":248.2671,"ARG_OF_PERICENTER":96.6161,"MEAN_ANOMALY":263.5162,"EPHEMERIS_TYPE":0,"CLASSIFICATION_TYPE":"U","NORAD_CAT_ID":48971,"ELEMENT_SET_NO":999,"REV_AT_EPOCH":22669,"BSTAR":0.00017331856,"MEAN_MOTION_DOT":7.9e-7,"MEAN_MOTION_DDOT":0},{"OBJECT_NAME":"ONEWEB-0254","OBJECT_ID":"2021-060F","EPOCH":"2026-03-11T04:45:16.139808","MEAN_MOTION":13.1659352,"ECCENTRICITY":0.00019597,"INCLINATION":87.9009,"RA_OF_ASC_NODE":248.2598,"ARG_OF_PERICENTER":100.1037,"MEAN_ANOMALY":260.0315,"EPHEMERIS_TYPE":0,"CLASSIFICATION_TYPE":"U","NORAD_CAT_ID":48972,"ELEMENT_SET_NO":999,"REV_AT_EPOCH":22669,"BSTAR":3.8969188e-5,"MEAN_MOTION_DOT":2.8e-7,"MEAN_MOTION_DDOT":0},{"OBJECT_NAME":"ONEWEB-0255","OBJECT_ID":"2021-060G","EPOCH":"2026-03-11T05:39:59.379552","MEAN_MOTION":13.16594265,"ECCENTRICITY":0.00018135,"INCLINATION":87.9005,"RA_OF_ASC_NODE":248.2615,"ARG_OF_PERICENTER":100.0188,"MEAN_ANOMALY":260.1148,"EPHEMERIS_TYPE":0,"CLASSIFICATION_TYPE":"U","NORAD_CAT_ID":48973,"ELEMENT_SET_NO":999,"REV_AT_EPOCH":22677,"BSTAR":0.00032517795,"MEAN_MOTION_DOT":1.37e-6,"MEAN_MOTION_DDOT":0},{"OBJECT_NAME":"ONEWEB-0256","OBJECT_ID":"2021-060H","EPOCH":"2026-03-11T00:49:18.272928","MEAN_MOTION":13.16593609,"ECCENTRICITY":0.0001482,"INCLINATION":87.9008,"RA_OF_ASC_NODE":248.3089,"ARG_OF_PERICENTER":95.5318,"MEAN_ANOMALY":264.5982,"EPHEMERIS_TYPE":0,"CLASSIFICATION_TYPE":"U","NORAD_CAT_ID":48974,"ELEMENT_SET_NO":999,"REV_AT_EPOCH":22671,"BSTAR":0.00012536496,"MEAN_MOTION_DOT":6.1e-7,"MEAN_MOTION_DDOT":0},{"OBJECT_NAME":"ONEWEB-0257","OBJECT_ID":"2021-060J","EPOCH":"2026-03-11T05:14:54.256992","MEAN_MOTION":13.16594102,"ECCENTRICITY":0.00016761,"INCLINATION":87.9004,"RA_OF_ASC_NODE":248.2559,"ARG_OF_PERICENTER":101.7267,"MEAN_ANOMALY":258.4052,"EPHEMERIS_TYPE":0,"CLASSIFICATION_TYPE":"U","NORAD_CAT_ID":48975,"ELEMENT_SET_NO":999,"REV_AT_EPOCH":22669,"BSTAR":2.6716899e-5,"MEAN_MOTION_DOT":2.3e-7,"MEAN_MOTION_DDOT":0},{"OBJECT_NAME":"ONEWEB-0258","OBJECT_ID":"2021-060K","EPOCH":"2026-03-11T05:17:13.198560","MEAN_MOTION":13.16596825,"ECCENTRICITY":0.00017096,"INCLINATION":87.9005,"RA_OF_ASC_NODE":248.2672,"ARG_OF_PERICENTER":95.5227,"MEAN_ANOMALY":264.6099,"EPHEMERIS_TYPE":0,"CLASSIFICATION_TYPE":"U","NORAD_CAT_ID":48976,"ELEMENT_SET_NO":999,"REV_AT_EPOCH":22670,"BSTAR":9.2708134e-5,"MEAN_MOTION_DOT":4.8e-7,"MEAN_MOTION_DDOT":0},{"OBJECT_NAME":"ONEWEB-0259","OBJECT_ID":"2021-060L","EPOCH":"2026-03-10T21:50:19.081248","MEAN_MOTION":13.16593845,"ECCENTRICITY":0.0001801,"INCLINATION":87.9006,"RA_OF_ASC_NODE":248.3279,"ARG_OF_PERICENTER":98.4944,"MEAN_ANOMALY":261.6391,"EPHEMERIS_TYPE":0,"CLASSIFICATION_TYPE":"U","NORAD_CAT_ID":48977,"ELEMENT_SET_NO":999,"REV_AT_EPOCH":22669,"BSTAR":-9.7153e-6,"MEAN_MOTION_DOT":9.0e-8,"MEAN_MOTION_DDOT":0},{"OBJECT_NAME":"ONEWEB-0260","OBJECT_ID":"2021-060M","EPOCH":"2026-03-11T01:16:38.572608","MEAN_MOTION":13.16594658,"ECCENTRICITY":0.00012497,"INCLINATION":87.9005,"RA_OF_ASC_NODE":248.3052,"ARG_OF_PERICENTER":102.3063,"MEAN_ANOMALY":257.8208,"EPHEMERIS_TYPE":0,"CLASSIFICATION_TYPE":"U","NORAD_CAT_ID":48978,"ELEMENT_SET_NO":999,"REV_AT_EPOCH":22669,"BSTAR":-0.00019325289,"MEAN_MOTION_DOT":-6.1e-7,"MEAN_MOTION_DDOT":0},{"OBJECT_NAME":"ONEWEB-0261","OBJECT_ID":"2021-060N","EPOCH":"2026-03-11T00:33:17.247456","MEAN_MOTION":13.16591424,"ECCENTRICITY":0.00018257,"INCLINATION":87.8996,"RA_OF_ASC_NODE":248.3111,"ARG_OF_PERICENTER":108.9039,"MEAN_ANOMALY":251.229,"EPHEMERIS_TYPE":0,"CLASSIFICATION_TYPE":"U","NORAD_CAT_ID":48979,"ELEMENT_SET_NO":999,"REV_AT_EPOCH":22674,"BSTAR":-1.5143837e-5,"MEAN_MOTION_DOT":7.0e-8,"MEAN_MOTION_DDOT":0},{"OBJECT_NAME":"ONEWEB-0262","OBJECT_ID":"2021-060P","EPOCH":"2026-03-11T00:04:50.412864","MEAN_MOTION":13.16593556,"ECCENTRICITY":0.00019247,"INCLINATION":87.9006,"RA_OF_ASC_NODE":248.2972,"ARG_OF_PERICENTER":95.0037,"MEAN_ANOMALY":265.1314,"EPHEMERIS_TYPE":0,"CLASSIFICATION_TYPE":"U","NORAD_CAT_ID":48980,"ELEMENT_SET_NO":999,"REV_AT_EPOCH":22670,"BSTAR":0.00013673016,"MEAN_MOTION_DOT":6.5e-7,"MEAN_MOTION_DDOT":0},{"OBJECT_NAME":"ONEWEB-0263","OBJECT_ID":"2021-060Q","EPOCH":"2026-03-11T04:29:18.065760","MEAN_MOTION":13.16594081,"ECCENTRICITY":0.00019032,"INCLINATION":87.9008,"RA_OF_ASC_NODE":248.2721,"ARG_OF_PERICENTER":105.5284,"MEAN_ANOMALY":254.6057,"EPHEMERIS_TYPE":0,"CLASSIFICATION_TYPE":"U","NORAD_CAT_ID":48981,"ELEMENT_SET_NO":999,"REV_AT_EPOCH":22669,"BSTAR":0.00017446504,"MEAN_MOTION_DOT":8.0e-7,"MEAN_MOTION_DDOT":0},{"OBJECT_NAME":"ONEWEB-0264","OBJECT_ID":"2021-060R","EPOCH":"2026-03-11T07:12:18.540576","MEAN_MOTION":13.16592249,"ECCENTRICITY":0.00015737,"INCLINATION":87.9005,"RA_OF_ASC_NODE":248.2536,"ARG_OF_PERICENTER":104.412,"MEAN_ANOMALY":255.7186,"EPHEMERIS_TYPE":0,"CLASSIFICATION_TYPE":"U","NORAD_CAT_ID":48982,"ELEMENT_SET_NO":999,"REV_AT_EPOCH":22671,"BSTAR":-6.0810726e-5,"MEAN_MOTION_DOT":-1.0e-7,"MEAN_MOTION_DDOT":0}]
